[{"OBJECT_NAME":"STARLINK-31494","OBJECT_ID":"2024-049H","EPOCH":"2026-03-09T06:19:24.739392","MEAN_MOTION":15.27577403,"ECCENTRICITY":0.00011798,"INCLINATION":43.0015,"RA_OF_ASC_NODE":145.7093,"ARG_OF_PERICENTER":241.1794,"MEAN_ANOMALY":118.8939,"EPHEMERIS_TYPE":0,"CLASSIFICATION_TYPE":"U","NORAD_CAT_ID":59238,"ELEMENT_SET_NO":999,"REV_AT_EPOCH":11234,"BSTAR":-7.2634391e-5,"MEAN_MOTION_DOT":-2.26e-5,"MEAN_MOTION_DDOT":0},{"OBJECT_NAME":"FENGYUN 1C DEB","OBJECT_ID":"1999-025DCL","EPOCH":"2026-03-08T01:32:38.043744","MEAN_MOTION":14.80481308,"ECCENTRICITY":0.0218035,"INCLINATION":98.8149,"RA_OF_ASC_NODE":16.0796,"ARG_OF_PERICENTER":161.8742,"MEAN_ANOMALY":199.0399,"EPHEMERIS_TYPE":0,"CLASSIFICATION_TYPE":"U","NORAD_CAT_ID":33603,"ELEMENT_SET_NO":999,"REV_AT_EPOCH":119,"BSTAR":0.0001936534,"MEAN_MOTION_DOT":2.149e-5,"MEAN_MOTION_DDOT":0}]
